[
    {
        "CCSDS_OMM_VERS": "3.0",
        "COMMENT": "GENERATED VIA SPACE-TRACK.ORG API",
        "CREATION_DATE": "2025-04-14T03:05:54",
        "ORIGINATOR": "18 SPCS",
        "OBJECT_NAME": "COSMOS 2471 (GLONASS)",
        "OBJECT_ID": "2011-009A",
        "CENTER_NAME": "EARTH",
        "REF_FRAME": "TEME",
        "TIME_SYSTEM": "UTC",
        "MEAN_ELEMENT_THEORY": "SGP4",
        "EPOCH": "2025-04-13T23:03:31.661568",
        "MEAN_MOTION": "2.12911538",
        "ECCENTRICITY": "0.00090930",
        "INCLINATION": "65.6439",
        "RA_OF_ASC_NODE": "328.9548",
        "ARG_OF_PERICENTER": "330.4902",
        "MEAN_ANOMALY": "64.1329",
        "EPHEMERIS_TYPE": "0",
        "CLASSIFICATION_TYPE": "U",
        "NORAD_CAT_ID": "37372",
        "ELEMENT_SET_NO": "999",
        "REV_AT_EPOCH": "10994",
        "BSTAR": "0.00000000000000",
        "MEAN_MOTION_DOT": "-0.00000047",
        "MEAN_MOTION_DDOT": "0.0000000000000",
        "SEMIMAJOR_AXIS": "25523.234",
        "PERIOD": "676.337",
        "APOAPSIS": "19168.308",
        "PERIAPSIS": "19121.891",
        "OBJECT_TYPE": "PAYLOAD",
        "RCS_SIZE": "LARGE",
        "COUNTRY_CODE": "CIS",
        "LAUNCH_DATE": "2011-02-26",
        "SITE": "PKMTR",
        "DECAY_DATE": null,
        "FILE": "4701263",
        "GP_ID": "285535570",
        "TLE_LINE0": "0 COSMOS 2471 (GLONASS)",
        "TLE_LINE1": "1 37372U 11009A   25103.96078312 -.00000047  00000-0  00000-0 0  9992",
        "TLE_LINE2": "2 37372  65.6439 328.9548 0009093 330.4902  64.1329  2.12911538109948"
    }
]